TIANQI-6                
1 46810U 20076D   25330.85465898  .00005066  00000+0  34879-3 0  9990
2 46810  34.9982 208.6070 0010444 195.8514 164.1869 15.05253304278050
CE-SAT IIB              
1 46818U 20077F   25330.87273172  .00039985  00000+0  36638-3 0  9995
2 46818  97.2355  39.1636 0004024 181.1339 178.9914 15.67668312283337
NAVSTAR 80 (USA 309)    
1 46826U 20078A   25316.12603230 -.00000034  00000+0  00000+0 0  9993
2 46826  54.0223 219.5836 0063911 203.4985 326.7754  2.00567032 37154
RISAT-2BR2              
1 46905U 20081A   25330.51560890  .00005521  00000+0  42600-3 0  9999
2 46905  36.9002 347.5164 0016618 290.1544  69.7409 15.01254412276996
KSM1-C                  
1 46906U 20081B   25330.88034314  .00010631  00000+0  45342-3 0  9991
2 46906  36.8925 224.1031 0005661 312.4860  47.5409 15.22370474278275
KSM1-D                  
1 46907U 20081C   25330.84579523  .00009835  00000+0  43832-3 0  9990
2 46907  36.8959 229.9442 0006282 325.4384  34.5955 15.20897189278230
KSM1-A                  
1 46912U 20081H   25330.86153459  .00010219  00000+0  44302-3 0  9995
2 46912  36.8949 225.3208 0002149 352.7847   7.2869 15.21840317278299
R2                      
1 46913U 20081J   25330.75848142  .00010264  00000+0  44955-3 0  9998
2 46913  36.8977 225.0582 0008282 352.7543   7.3084 15.21464639281091
KSM1-B                  
1 46914U 20081K   25330.82505498  .00009481  00000+0  42463-3 0  9992
2 46914  36.9001 230.2503 0006949 348.3998  11.6589 15.20743532281320
TIANTONG-1 2            
1 46916U 20082A   25330.82046374 -.00000337  00000+0  00000+0 0  9997
2 46916   1.1397 307.0564 0003739 346.2747 192.9533  1.00268907 18621
DRAGRACER 2 (AUGURY)    
1 46955U 20085AC  25330.48114451  .00026799  00000+0  36683-3 0  9996
2 46955  97.5826 146.6297 0005477 304.0413  56.0321 15.57375284280184
SENTINEL-6A             
1 46984U 20086A   25330.79075574 -.00000064  00000+0 -11963-4 0  9999
2 46984  66.0394 195.4342 0007723 269.0851  90.9279 12.80929737234406
STARLINK-1777           
1 47122U 20088A   25330.51200527  .00001085  00000+0  91685-4 0  9995
2 47122  53.0546  44.8025 0001230  94.6082 265.5047 15.06401634276283
STARLINK-1812           
1 47126U 20088E   25330.53779456  .00006980  00000+0  48684-3 0  9992
2 47126  53.0549  44.6848 0001102  89.6070 270.5046 15.06413915276291
STARLINK-1843           
1 47133U 20088M   25330.83334491  .00051309  00000+0  10862-2 0  9990
2 47133  53.0538  26.4537 0007023  11.1916 201.9942 15.44613279  5815
STARLINK-1845           
1 47135U 20088P   25330.50924054  .00004774  00000+0  33914-3 0  9994
2 47135  53.0536  34.8136 0001210  93.9739 266.1388 15.06405944276426
STARLINK-1856           
1 47143U 20088X   25330.44658124  .00002151  00000+0  16325-3 0  9992
2 47143  53.0556  35.0944 0001192  95.5431 264.5694 15.06400067276415
STARLINK-1871           
1 47157U 20088AM  25330.61520639  .00000357  00000+0  42829-4 0  9990
2 47157  53.0553  44.3371 0001038  92.5679 267.5429 15.06412123276307
STARLINK-1873           
1 47158U 20088AN  25330.50555528  .00002078  00000+0  15833-3 0  9990
2 47158  53.0551  34.8311 0001436  86.3285 273.7868 15.06403148276426
STARLINK-1876           
1 47161U 20088AR  25330.40603174  .00013172  00000+0  90093-3 0  9992
2 47161  53.0559  35.2753 0001038  74.2989 285.8115 15.06423849276416
STARLINK-1888           
1 47171U 20088BB  25330.68248128  .00003854  00000+0  27749-3 0  9991
2 47171  53.0547  34.0382 0001309  92.3289 267.7850 15.06402831276451
STARLINK-1912           
1 47178U 20088BJ  25330.58203951  .00009223  00000+0  63687-3 0  9999
2 47178  53.0543  44.4846 0001249  91.1277 268.9855 15.06420497276299
STARLINK-1913           
1 47179U 20088BK  25330.63640795  .00001163  00000+0  96933-4 0  9993
2 47179  53.0563  54.2448 0001402  87.7111 272.4038 15.06403490276161
LUCAS (JDRS-1)          
1 47202U 20089A   25330.82357440 -.00000217  00000+0  00000+0 0  9999
2 47202   0.0161  53.9031 0003209 196.5420 202.8355  1.00273880 18392
FALCON EYE 2            
1 47226U 20090A   25330.81058100  .00001602  00000+0  19437-3 0  9993
2 47226  97.8489  43.4589 0001250  80.0432 280.0924 14.84949163270201
GONETS-M 20             
1 47227U 20091A   25330.79744225  .00000049  00000+0  28217-3 0  9992
2 47227  82.5051  68.2438 0019941 260.4872  99.3954 12.42856704225938
GONETS-M 21             
1 47228U 20091B   25330.85085696  .00000043  00000+0  23735-3 0  9994
2 47228  82.4976  67.0417 0013680 274.3378  85.6138 12.42877329225935
GONETS-M 22             
1 47229U 20091C   25330.82453485  .00000035  00000+0  18173-3 0  9998
2 47229  82.5033  67.8621 0020836 255.3382 104.5387 12.42864961225880
COSMOS 2548             
1 47230U 20091D   25330.88511770  .00000025  00000+0  10929-3 0  9998
2 47230  82.5010  67.4776 0014035 274.0571  85.8904 12.42924618225923
GAOFEN-14 01            
1 47231U 20092A   25330.86291065  .00009229  00000+0  36996-3 0  9997
2 47231  97.2496  38.0722 0001229  98.4235 261.7142 15.25229650276985
SXM-7                   
1 47240U 20096A   25328.42454750 -.00000186  00000+0  00000+0 0  9999
2 47240   0.0073  55.6607 0004678  83.0372 352.6072  1.00274672  5397
IPM 2 & BREEZE-M R/B    
1 47242U 20097A   25329.92692063 -.00000062  00000+0  00000+0 0  9992
2 47242   4.8124  79.2151 0082904 272.3361  86.5090  0.95297626 17330
CMS-01                  
1 47256U 20099A   25330.38413419 -.00000146  00000+0  00000+0 0  9990
2 47256   0.0430 111.8104 0007944 148.8820  26.1749  1.00270590 18163
ONEWEB-0102             
1 47258U 20100A   25330.72511524 -.00000183  00000+0 -54288-3 0  9992
2 47258  87.8955  30.9080 0001753  94.1305 266.0024 13.12441920238176
ONEWEB-0109             
1 47259U 20100B   25330.73322052 -.00000416  00000+0 -11917-2 0  9990
2 47259  87.8957  30.8745 0001800  96.5222 263.6112 13.12441775238004
ONEWEB-0110             
1 47260U 20100C   25330.68293720  .00000108  00000+0  26577-3 0  9990
2 47260  87.8957  30.8678 0002070  99.5939 260.5423 13.12442645238164
ONEWEB-0111             
1 47261U 20100D   25330.71376338  .00000265  00000+0  70108-3 0  9995
2 47261  87.8960  30.8796 0001778  98.7368 261.3962 13.12441200238007
ONEWEB-0114             
1 47262U 20100E   25330.66832933 -.00000325  00000+0 -93793-3 0  9992
2 47262  87.8959  30.8833 0001579  91.3522 268.7788 13.12444141237955
ONEWEB-0117             
1 47263U 20100F   25330.66022697 -.00000478  00000+0 -13642-2 0  9994
2 47263  87.8956  30.8826 0001821 100.3897 259.7437 13.12442622237965
ONEWEB-0118             
1 47264U 20100G   25330.69267591  .00000364  00000+0  97545-3 0  9999
2 47264  87.8960  30.8753 0001437 100.0641 260.0649 13.12443703238161
ONEWEB-0119             
1 47265U 20100H   25330.72024645  .00000007  00000+0 -16618-4 0  9993
2 47265  87.8951  30.9062 0001851  99.4390 260.6947 13.12441487238140
ONEWEB-0120             
1 47266U 20100J   25330.66685351 -.00000386  00000+0 -11082-2 0  9993
2 47266  87.8950  30.9173 0001719  97.8122 262.3202 13.12442793238167
ONEWEB-0121             
1 47267U 20100K   25330.73159862 -.00000369  00000+0 -10619-2 0  9991
2 47267  87.8959  30.8721 0001983 100.4535 259.6817 13.12442142238087
ONEWEB-0122             
1 47268U 20100L   25330.65036117 -.00000219  00000+0 -64351-3 0  9997
2 47268  87.8959  30.8908 0001878  95.3290 264.8053 13.12442103237983
ONEWEB-0123             
1 47269U 20100M   25330.72187148 -.00000094  00000+0 -29614-3 0  9991
2 47269  87.8956  30.9036 0001688 102.2120 257.9198 13.12440749238138
ONEWEB-0124             
1 47270U 20100N   25330.71051867  .00000316  00000+0  84370-3 0  9995
2 47270  87.8957  30.9103 0001869 105.0041 255.1294 13.12441822238017
ONEWEB-0125             
1 47271U 20100P   25330.68780448  .00000283  00000+0  75216-3 0  9998
2 47271  87.8957  30.8766 0001669 108.3232 251.8079 13.12443874238077
ONEWEB-0126             
1 47272U 20100Q   25330.70903738  .00000331  00000+0  88409-3 0  9993
2 47272  87.8959  30.8960 0001722  97.0091 263.1234 13.12442044238148
ONEWEB-0127             
1 47273U 20100R   25330.67482823 -.00000210  00000+0 -61854-3 0  9990
2 47273  87.8951  30.9139 0001774  96.0507 264.0824 13.12443181238168
ONEWEB-0128             
1 47274U 20100S   25330.69754391  .00000386  00000+0  10388-2 0  9992
2 47274  87.8947  30.9269 0002013  96.1957 263.9401 13.12443115238183
ONEWEB-0129             
1 47275U 20100T   25330.67644375 -.00000142  00000+0 -42912-3 0  9992
2 47275  87.8959  30.8830 0001697  62.2520 297.8780 13.12443896238112
ONEWEB-0130             
1 47276U 20100U   25330.70403395  .00000395  00000+0  10619-2 0  9998
2 47276  87.8958  30.8730 0001884  96.7979 263.3364 13.12442264238089
ONEWEB-0131             
1 47277U 20100V   25330.70079025  .00000455  00000+0  12302-2 0  9996
2 47277  87.8961  30.9038 0001824  99.8722 260.2612 13.12442954238123
ONEWEB-0132             
1 47278U 20100W   25330.72997711 -.00000296  00000+0 -85839-3 0  9991
2 47278  87.8961  30.8997 0001825  99.4787 260.6548 13.12442543238020
ONEWEB-0133             
1 47279U 20100X   25330.66982227 -.00000347  00000+0 -10003-2 0  9998
2 47279  87.8955  30.8742 0001935  99.7315 260.4032 13.12443963238173
ONEWEB-0134             
1 47280U 20100Y   25330.71538691  .00000165  00000+0  42298-3 0  9996
2 47280  87.8960  30.8594 0001966  93.5273 266.6081 13.12441687238156
ONEWEB-0135             
1 47281U 20100Z   25330.68617132 -.00000360  00000+0 -10360-2 0  9994
2 47281  87.8957  30.9050 0002124  93.4932 266.6439 13.12446261238171
ONEWEB-0136             
1 47282U 20100AA  25330.70565521  .00000436  00000+0  11770-2 0  9990
2 47282  87.8959  30.8704 0002017  89.1000 271.0359 13.12442073238109
ONEWEB-0137             
1 47283U 20100AB  25330.73970417 -.00000402  00000+0 -11535-2 0  9992
2 47283  87.8961  30.8700 0001592  98.7343 261.3966 13.12442786238019
